*******************************************************************************
JPL/HORIZONS                3389 Sinzot (1984 DU)          2023-Sep-04 11:23:19
Rec #:    3389 (+COV) Soln.date: 2023-Aug-23_09:52:30   # obs: 3677 (1964-2023)
 
IAU76/J2000 helio. ecliptic osc. elements (au, days, deg., period=Julian yrs):
 
  EPOCH=  2457535.5 ! 2016-May-27.00 (TDB)         Residual RMS= .27564
   EC= .136549788926534    QR= 2.394746949671598   TP= 2457237.3590316107
   OM= 150.123342187372    W=  268.7004299625127   IN= 7.069245043684758
   A= 2.773462695312078    MA= 63.61979107201601   ADIST= 3.152178440952559
   PER= 4.61893            N= .213388289           ANGMOM= .028379549
   DAN= 2.7302             DDN= 2.71335            L= 58.8138208
   B= -7.0674174           MOID= 1.42005002        TP= 2015-Aug-02.8590316107
 
Asteroid physical parameters (km, seconds, rotational period in hours):
   GM= n.a.                RAD= 10.384             ROTPER= 7.539
   H= 12.72                G= .150                 B-V= n.a.
                           ALBEDO= .045            STYP= C

ASTEROID comments: 
1: soln ref.= JPL#57, OCC=0
2: source=ORB
*******************************************************************************


*******************************************************************************
Ephemeris / API_USER Mon Sep  4 11:23:19 2023 Pasadena, USA      / Horizons
*******************************************************************************
Target body name: 3389 Sinzot (1984 DU)           {source: JPL#57}
Center body name: Solar System Barycenter (0)     {source: DE441}
Center-site name: BODY CENTER
*******************************************************************************
Start time      : A.D. 2023-Aug-12 00:00:00.0000 TDB
Stop  time      : A.D. 2023-Aug-13 00:00:00.0000 TDB
Step-size       : 2880 minutes
*******************************************************************************
Center geodetic : 0.0, 0.0, 0.0                   {E-lon(deg),Lat(deg),Alt(km)}
Center cylindric: 0.0, 0.0, 0.0                   {E-lon(deg),Dxy(km),Dz(km)}
Center radii    : (undefined)
Small perturbers: Yes                             {source: SB441-N16}
Output units    : KM-S
Calendar mode   : Mixed Julian/Gregorian
Output type     : GEOMETRIC cartesian states
Output format   : 2 (position and velocity)
Reference frame : Ecliptic of J2000.0
*******************************************************************************
Initial IAU76/J2000 heliocentric ecliptic osculating elements (au, days, deg.):
  EPOCH=  2457535.5 ! 2016-May-27.00 (TDB)         Residual RMS= .27564        
   EC= .136549788926534    QR= 2.394746949671598   TP= 2457237.3590316107      
   OM= 150.123342187372    W=  268.7004299625127   IN= 7.069245043684758       
  Equivalent ICRF heliocentric cartesian coordinates (au, au/d):
   X=-1.954113343387052E+00  Y= 1.669814492376438E+00  Z= 6.458586305606299E-01
  VX=-8.233046297950502E-03 VY=-6.804511144992270E-03 VZ=-1.589966532870281E-03
Asteroid physical parameters (km, seconds, rotational period in hours):        
   GM= n.a.                RAD= 10.384             ROTPER= 7.539               
   H= 12.72                G= .150                 B-V= n.a.                   
                           ALBEDO= .045            STYP= C                     
*******************************************************************************
JDTDB
   X     Y     Z
   VX    VY    VZ
*******************************************************************************
$$SOE
2460168.500000000 = A.D. 2023-Aug-12 00:00:00.0000 TDB 
 X = 2.672412962199829E+08 Y =-3.323380133507662E+08 Z = 1.900182255132155E+07
 VX= 1.184165467598865E+01 VY= 1.248941734757137E+01 VZ=-2.075467129063170E+00
$$EOE
*******************************************************************************
 
TIME

  Barycentric Dynamical Time ("TDB" or T_eph) output was requested. This
continuous coordinate time is equivalent to the relativistic proper time
of a clock at rest in a reference frame co-moving with the solar system
barycenter but outside the system's gravity well. It is the independent
variable in the solar system relativistic equations of motion.

  TDB runs at a uniform rate of one SI second per second and is independent
of irregularities in Earth's rotation.
 
CALENDAR SYSTEM

  Mixed calendar mode was active such that calendar dates after AD 1582-Oct-15
(if any) are in the modern Gregorian system. Dates prior to 1582-Oct-5 (if any)
are in the Julian calendar system, which is automatically extended for dates
prior to its adoption on 45-Jan-1 BC.  The Julian calendar is useful for
matching historical dates. The Gregorian calendar more accurately corresponds
to the Earth's orbital motion and seasons. A "Gregorian-only" calendar mode is
available if such physical events are the primary interest.

REFERENCE FRAME AND COORDINATES

  Ecliptic at the standard reference epoch

    Reference epoch: J2000.0
    X-Y plane: adopted Earth orbital plane at the reference epoch
               Note: IAU76 obliquity of 84381.448 arcseconds wrt ICRF X-Y plane
    X-axis   : ICRF
    Z-axis   : perpendicular to the X-Y plane in the directional (+ or -) sense
               of Earth's north pole at the reference epoch.

  Symbol meaning:

    JDTDB    Julian Day Number, Barycentric Dynamical Time
      X      X-component of position vector (km)
      Y      Y-component of position vector (km)
      Z      Z-component of position vector (km)
      VX     X-component of velocity vector (km/sec)                           
      VY     Y-component of velocity vector (km/sec)                           
      VZ     Z-component of velocity vector (km/sec)                           

ABERRATIONS AND CORRECTIONS

 Geometric state vectors have NO corrections or aberrations applied.

Computations by ...

    Solar System Dynamics Group, Horizons On-Line Ephemeris System
    4800 Oak Grove Drive, Jet Propulsion Laboratory
    Pasadena, CA  91109   USA

    General site: https://ssd.jpl.nasa.gov/
    Mailing list: https://ssd.jpl.nasa.gov/email_list.html
    System news : https://ssd.jpl.nasa.gov/horizons/news.html
    User Guide  : https://ssd.jpl.nasa.gov/horizons/manual.html
    Connect     : browser        https://ssd.jpl.nasa.gov/horizons/app.html#/x
                  API            https://ssd-api.jpl.nasa.gov/doc/horizons.html
                  command-line   telnet ssd.jpl.nasa.gov 6775
                  e-mail/batch   https://ssd.jpl.nasa.gov/ftp/ssd/hrzn_batch.txt
                  scripts        https://ssd.jpl.nasa.gov/ftp/ssd/SCRIPTS
    Author      : Jon.D.Giorgini@jpl.nasa.gov
*******************************************************************************
